CCSDS_OMM_VERS = 2.0
CREATION_DATE  = 
ORIGINATOR     = 

OBJECT_NAME    = CZ-2C R/B
OBJECT_ID      = 2022-132E
CENTER_NAME    = EARTH
REF_FRAME      = TEME
TIME_SYSTEM    = UTC
MEAN_ELEMENT_THEORY = SGP/SGP4

EPOCH          = 2026-02-23T06:28:38.280000
MEAN_MOTION    = 15.60499116
ECCENTRICITY   = .0020373
INCLINATION    = 97.2966
RA_OF_ASC_NODE = 57.1656
ARG_OF_PERICENTER = 137.6777
MEAN_ANOMALY   = 222.6057

EPHEMERIS_TYPE = 0
CLASSIFICATION_TYPE = U
NORAD_CAT_ID   = 54039
ELEMENT_SET_NO = 999
REV_AT_EPOCH   = 18812
BSTAR          = .55497E-3
MEAN_MOTION_DOT = .46212E-3
MEAN_MOTION_DDOT = 0

CCSDS_OMM_VERS = 2.0
CREATION_DATE  = 
ORIGINATOR     = 

OBJECT_NAME    = GSLV R/B
OBJECT_ID      = 2022-138AN
CENTER_NAME    = EARTH
REF_FRAME      = TEME
TIME_SYSTEM    = UTC
MEAN_ELEMENT_THEORY = SGP/SGP4

EPOCH          = 2026-02-23T06:42:20.827872
MEAN_MOTION    = 14.96657198
ECCENTRICITY   = .0020914
INCLINATION    = 87.3878
RA_OF_ASC_NODE = 171.1839
ARG_OF_PERICENTER = 198.1197
MEAN_ANOMALY   = 161.9292

EPHEMERIS_TYPE = 0
CLASSIFICATION_TYPE = U
NORAD_CAT_ID   = 54149
ELEMENT_SET_NO = 999
REV_AT_EPOCH   = 18177
BSTAR          = .33221E-3
MEAN_MOTION_DOT = .3831E-4
MEAN_MOTION_DDOT = 0

CCSDS_OMM_VERS = 2.0
CREATION_DATE  = 
ORIGINATOR     = 

OBJECT_NAME    = XRISM
OBJECT_ID      = 2023-137A
CENTER_NAME    = EARTH
REF_FRAME      = TEME
TIME_SYSTEM    = UTC
MEAN_ELEMENT_THEORY = SGP/SGP4

EPOCH          = 2026-02-23T13:46:14.897856
MEAN_MOTION    = 15.11308868
ECCENTRICITY   = .0008336
INCLINATION    = 31.0035
RA_OF_ASC_NODE = 14.9498
ARG_OF_PERICENTER = 257.9719
MEAN_ANOMALY   = 101.9985

EPHEMERIS_TYPE = 0
CLASSIFICATION_TYPE = U
NORAD_CAT_ID   = 57800
ELEMENT_SET_NO = 999
REV_AT_EPOCH   = 13565
BSTAR          = .37235E-3
MEAN_MOTION_DOT = .653E-4
MEAN_MOTION_DDOT = 0

CCSDS_OMM_VERS = 2.0
CREATION_DATE  = 
ORIGINATOR     = 

OBJECT_NAME    = ACS3
OBJECT_ID      = 2024-077B
CENTER_NAME    = EARTH
REF_FRAME      = TEME
TIME_SYSTEM    = UTC
MEAN_ELEMENT_THEORY = SGP/SGP4

EPOCH          = 2026-02-23T14:20:40.663104
MEAN_MOTION    = 13.88948277
ECCENTRICITY   = .0050915
INCLINATION    = 97.2143
RA_OF_ASC_NODE = 358.8785
ARG_OF_PERICENTER = 116.5865
MEAN_ANOMALY   = 244.0528

EPHEMERIS_TYPE = 0
CLASSIFICATION_TYPE = U
NORAD_CAT_ID   = 59588
ELEMENT_SET_NO = 999
REV_AT_EPOCH   = 9224
BSTAR          = .15136E-1
MEAN_MOTION_DOT = .18524E-3
MEAN_MOTION_DDOT = 0

CCSDS_OMM_VERS = 2.0
CREATION_DATE  = 
ORIGINATOR     = 

OBJECT_NAME    = SZ-21 MODULE
OBJECT_ID      = 2025-246C
CENTER_NAME    = EARTH
REF_FRAME      = TEME
TIME_SYSTEM    = UTC
MEAN_ELEMENT_THEORY = SGP/SGP4

EPOCH          = 2026-02-23T16:17:19.176288
MEAN_MOTION    = 15.67395347
ECCENTRICITY   = .0001528
INCLINATION    = 41.4750
RA_OF_ASC_NODE = 289.5346
ARG_OF_PERICENTER = 291.1121
MEAN_ANOMALY   = 68.9556

EPHEMERIS_TYPE = 0
CLASSIFICATION_TYPE = U
NORAD_CAT_ID   = 66515
ELEMENT_SET_NO = 999
REV_AT_EPOCH   = 1587
BSTAR          = .33402E-3
MEAN_MOTION_DOT = .3701E-3
MEAN_MOTION_DDOT = 0

